start=new Date('2022-01-08T00:00:00.000Z').valueOf();
sats=[{"DECAY_DATE":null,"OBJECT_TYPE":"PAYLOAD","ARG_OF_PERICENTER":"78.4267","PERIAPSIS":"546.344","TLE_LINE2":"2 48299  53.0562  73.3287 0001299  78.4267 281.6868 15.06390221 38942","MEAN_MOTION_DOT":"-0.00000454","TLE_LINE1":"1 48299U 21036Z   22007.87323200 -.00000454  00000-0 -11596-4 0  9991","GP_ID":"193424586","FILE":"3266804","INCLINATION":"53.0562","EPHEMERIS_TYPE":"0","OBJECT_ID":"2021-036Z","SITE":"AFETR","MEAN_ELEMENT_THEORY":"SGP4","MEAN_MOTION":"15.06390221","ELEMENT_SET_NO":"999","RCS_SIZE":"LARGE","RA_OF_ASC_NODE":"73.3287","MEAN_ANOMALY":"281.6868","REV_AT_EPOCH":"3894","NORAD_CAT_ID":"48299","SEMIMAJOR_AXIS":"6925.379","BSTAR":"-0.00001159600000","TIME_SYSTEM":"UTC","MEAN_MOTION_DDOT":"0.0000000000000","LAUNCH_DATE":"2021-04-29","PERIOD":"95.593","CENTER_NAME":"EARTH","CLASSIFICATION_TYPE":"U","APOAPSIS":"548.143","EPOCH":"2022-01-07T20:57:27.244800","OBJECT_NAME":"STARLINK-2557","REF_FRAME":"TEME","COUNTRY_CODE":"US","ECCENTRICITY":"0.00012990"},{"MEAN_MOTION":"15.06393319","MEAN_ELEMENT_THEORY":"SGP4","OBJECT_ID":"2021-036AA","SITE":"AFETR","EPHEMERIS_TYPE":"0","INCLINATION":"53.0552","GP_ID":"193424836","FILE":"3266804","TLE_LINE1":"1 48300U 21036AA  22007.66589498 -.00000546  00000-0 -17779-4 0  9995","TLE_LINE2":"2 48300  53.0552  84.2615 0001322  83.7433 276.3707 15.06393319 38776","PERIAPSIS":"546.319","MEAN_MOTION_DOT":"-0.00000546","ARG_OF_PERICENTER":"83.7433","DECAY_DATE":null,"OBJECT_TYPE":"PAYLOAD","COUNTRY_CODE":"US","ECCENTRICITY":"0.00013220","REF_FRAME":"TEME","OBJECT_NAME":"STARLINK-2538","EPOCH":"2022-01-07T15:58:53.326272","APOAPSIS":"548.150","CLASSIFICATION_TYPE":"U","CENTER_NAME":"EARTH","LAUNCH_DATE":"2021-04-29","PERIOD":"95.593","TIME_SYSTEM":"UTC","MEAN_MOTION_DDOT":"0.0000000000000","NORAD_CAT_ID":"48300","SEMIMAJOR_AXIS":"6925.369","BSTAR":"-0.00001777900000","RA_OF_ASC_NODE":"84.2615","MEAN_ANOMALY":"276.3707","REV_AT_EPOCH":"3877","RCS_SIZE":"LARGE","ELEMENT_SET_NO":"999"},{"RA_OF_ASC_NODE":"84.5547","MEAN_ANOMALY":"270.7000","REV_AT_EPOCH":"3875","RCS_SIZE":"LARGE","ELEMENT_SET_NO":"999","MEAN_MOTION_DDOT":"0.0000000000000","TIME_SYSTEM":"UTC","NORAD_CAT_ID":"48301","SEMIMAJOR_AXIS":"6925.383","BSTAR":"-0.00000332350000","EPOCH":"2022-01-07T14:18:02.809440","CLASSIFICATION_TYPE":"U","APOAPSIS":"548.187","CENTER_NAME":"EARTH","LAUNCH_DATE":"2021-04-29","PERIOD":"95.593","ECCENTRICITY":"0.00013560","COUNTRY_CODE":"US","REF_FRAME":"TEME","OBJECT_NAME":"STARLINK-2537","ARG_OF_PERICENTER":"89.4145","DECAY_DATE":null,"OBJECT_TYPE":"PAYLOAD","PERIAPSIS":"546.308","TLE_LINE2":"2 48301  53.0567  84.5547 0001356  89.4145 270.7000 15.06388899 38759","MEAN_MOTION_DOT":"-0.00000331","INCLINATION":"53.0567","GP_ID":"193426084","FILE":"3266804","TLE_LINE1":"1 48301U 21036AB  22007.59586585 -.00000331  00000-0 -33235-5 0  9990","MEAN_MOTION":"15.06388899","MEAN_ELEMENT_THEORY":"SGP4","OBJECT_ID":"2021-036AB","SITE":"AFETR","EPHEMERIS_TYPE":"0"},{"BSTAR":"0.00010532000000","SEMIMAJOR_AXIS":"6925.372","NORAD_CAT_ID":"48302","TIME_SYSTEM":"UTC","MEAN_MOTION_DDOT":"0.0000000000000","ELEMENT_SET_NO":"999","RCS_SIZE":"LARGE","REV_AT_EPOCH":"3877","RA_OF_ASC_NODE":"83.9859","MEAN_ANOMALY":"276.1797","OBJECT_NAME":"STARLINK-2556","ECCENTRICITY":"0.00009760","COUNTRY_CODE":"US","REF_FRAME":"TEME","LAUNCH_DATE":"2021-04-29","PERIOD":"95.593","CENTER_NAME":"EARTH","APOAPSIS":"547.912","CLASSIFICATION_TYPE":"U","EPOCH":"2022-01-07T17:23:48.336864","MEAN_MOTION_DOT":"0.00001287","TLE_LINE2":"2 48302  53.0568  83.9859 0000976  83.9303 276.1797 15.06392508 38779","PERIAPSIS":"546.561","OBJECT_TYPE":"PAYLOAD","DECAY_DATE":null,"ARG_OF_PERICENTER":"83.9303","EPHEMERIS_TYPE":"0","SITE":"AFETR","OBJECT_ID":"2021-036AC","MEAN_ELEMENT_THEORY":"SGP4","MEAN_MOTION":"15.06392508","TLE_LINE1":"1 48302U 21036AC  22007.72486501  .00001287  00000-0  10532-3 0  9995","FILE":"3266804","GP_ID":"193425824","INCLINATION":"53.0568"},{"OBJECT_ID":"2021-036AD","SITE":"AFETR","EPHEMERIS_TYPE":"0","MEAN_MOTION":"15.06338202","MEAN_ELEMENT_THEORY":"SGP4","GP_ID":"193425086","FILE":"3266804","TLE_LINE1":"1 48303U 21036AD  22007.58850810  .00010823  00000-0  74558-3 0  9992","INCLINATION":"53.0571","PERIAPSIS":"546.143","TLE_LINE2":"2 48303  53.0571  84.5864 0001819 100.1741 259.9454 15.06338202 38750","MEAN_MOTION_DOT":"0.00010823","DECAY_DATE":null,"OBJECT_TYPE":"PAYLOAD","ARG_OF_PERICENTER":"100.1741","OBJECT_NAME":"STARLINK-2530","ECCENTRICITY":"0.00018190","COUNTRY_CODE":"US","REF_FRAME":"TEME","CENTER_NAME":"EARTH","PERIOD":"95.596","LAUNCH_DATE":"2021-04-29","EPOCH":"2022-01-07T14:07:27.099840","CLASSIFICATION_TYPE":"U","APOAPSIS":"548.663","TIME_SYSTEM":"UTC","MEAN_MOTION_DDOT":"0.0000000000000","NORAD_CAT_ID":"48303","BSTAR":"0.00074558000000","SEMIMAJOR_AXIS":"6925.538","ELEMENT_SET_NO":"999","MEAN_ANOMALY":"259.9454","RA_OF_ASC_NODE":"84.5864","REV_AT_EPOCH":"3875","RCS_SIZE":"LARGE"},{"SITE":"AFETR","OBJECT_ID":"2021-036AE","EPHEMERIS_TYPE":"0","MEAN_MOTION":"15.06387865","MEAN_ELEMENT_THEORY":"SGP4","FILE":"3266804","GP_ID":"193425336","TLE_LINE1":"1 48304U 21036AE  22007.58480926 -.00000546  00000-0 -17741-4 0  9995","INCLINATION":"53.0562","MEAN_MOTION_DOT":"-0.00000546","TLE_LINE2":"2 48304  53.0562  84.6135 0001276  90.5092 269.6043 15.06387865 38752","PERIAPSIS":"546.367","OBJECT_TYPE":"PAYLOAD","DECAY_DATE":null,"ARG_OF_PERICENTER":"90.5092","OBJECT_NAME":"STARLINK-2524","COUNTRY_CODE":"US","REF_FRAME":"TEME","ECCENTRICITY":"0.00012760","CENTER_NAME":"EARTH","PERIOD":"95.593","LAUNCH_DATE":"2021-04-29","EPOCH":"2022-01-07T14:02:07.520064","APOAPSIS":"548.134","CLASSIFICATION_TYPE":"U","TIME_SYSTEM":"UTC","MEAN_MOTION_DDOT":"0.0000000000000","SEMIMAJOR_AXIS":"6925.386","BSTAR":"-0.00001774100000","NORAD_CAT_ID":"48304","ELEMENT_SET_NO":"999","REV_AT_EPOCH":"3875","MEAN_ANOMALY":"269.6043","RA_OF_ASC_NODE":"84.6135","RCS_SIZE":"LARGE"},{"OBJECT_TYPE":"PAYLOAD","DECAY_DATE":null,"ARG_OF_PERICENTER":"73.1406","MEAN_MOTION_DOT":"-0.00000083","PERIAPSIS":"546.410","TLE_LINE2":"2 48305  53.0557  84.6217 0001191  73.1406 286.9714 15.06393140 38750","FILE":"3266804","GP_ID":"193425585","TLE_LINE1":"1 48305U 21036AF  22007.58112202 -.00000083  00000-0  13298-4 0  9993","INCLINATION":"53.0557","SITE":"AFETR","OBJECT_ID":"2021-036AF","EPHEMERIS_TYPE":"0","MEAN_MOTION":"15.06393140","MEAN_ELEMENT_THEORY":"SGP4","ELEMENT_SET_NO":"999","REV_AT_EPOCH":"3875","RA_OF_ASC_NODE":"84.6217","MEAN_ANOMALY":"286.9714","RCS_SIZE":"LARGE","MEAN_MOTION_DDOT":"0.0000000000000","TIME_SYSTEM":"UTC","BSTAR":"0.00001329800000","SEMIMAJOR_AXIS":"6925.370","NORAD_CAT_ID":"48305","CENTER_NAME":"EARTH","PERIOD":"95.593","LAUNCH_DATE":"2021-04-29","EPOCH":"2022-01-07T13:56:48.942528","APOAPSIS":"548.059","CLASSIFICATION_TYPE":"U","OBJECT_NAME":"STARLINK-2519","COUNTRY_CODE":"US","ECCENTRICITY":"0.00011910","REF_FRAME":"TEME"},{"ELEMENT_SET_NO":"999","RCS_SIZE":"LARGE","MEAN_ANOMALY":"284.1976","RA_OF_ASC_NODE":"84.6552","REV_AT_EPOCH":"3934","NORAD_CAT_ID":"48306","SEMIMAJOR_AXIS":"6925.263","BSTAR":"-0.00058287000000","TIME_SYSTEM":"UTC","MEAN_MOTION_DDOT":"0.0000000000000","LAUNCH_DATE":"2021-04-29","PERIOD":"95.590","CENTER_NAME":"EARTH","APOAPSIS":"547.898","CLASSIFICATION_TYPE":"U","EPOCH":"2022-01-07T13:51:29.712672","OBJECT_NAME":"STARLINK-2523","ECCENTRICITY":"0.00011120","COUNTRY_CODE":"US","REF_FRAME":"TEME","DECAY_DATE":null,"OBJECT_TYPE":"PAYLOAD","ARG_OF_PERICENTER":"75.9137","TLE_LINE2":"2 48306  53.0567  84.6552 0001112  75.9137 284.1976 15.06428030 39341","PERIAPSIS":"546.358","MEAN_MOTION_DOT":"-0.00008959","TLE_LINE1":"1 48306U 21036AG  22007.57742723 -.00008959  00000-0 -58287-3 0  9997","GP_ID":"193398497","FILE":"3266571","INCLINATION":"53.0567","EPHEMERIS_TYPE":"0","OBJECT_ID":"2021-036AG","SITE":"AFETR","MEAN_ELEMENT_THEORY":"SGP4","MEAN_MOTION":"15.06428030"},{"PERIAPSIS":"546.562","TLE_LINE2":"2 48307  53.0558  84.6575 0001005  75.5388 284.5713 15.06385390 38750","MEAN_MOTION_DOT":"-0.00000634","ARG_OF_PERICENTER":"75.5388","DECAY_DATE":null,"OBJECT_TYPE":"PAYLOAD","MEAN_MOTION":"15.06385390","MEAN_ELEMENT_THEORY":"SGP4","OBJECT_ID":"2021-036AH","SITE":"AFETR","EPHEMERIS_TYPE":"0","INCLINATION":"53.0558","GP_ID":"193424587","FILE":"3266804","TLE_LINE1":"1 48307U 21036AH  22007.57374852 -.00000634  00000-0 -23696-4 0  9991","MEAN_MOTION_DDOT":"0.0000000000000","TIME_SYSTEM":"UTC","NORAD_CAT_ID":"48307","SEMIMAJOR_AXIS":"6925.393","BSTAR":"-0.00002369600000","MEAN_ANOMALY":"284.5713","RA_OF_ASC_NODE":"84.6575","REV_AT_EPOCH":"3875","RCS_SIZE":"LARGE","ELEMENT_SET_NO":"999","REF_FRAME":"TEME","COUNTRY_CODE":"US","ECCENTRICITY":"0.00010050","OBJECT_NAME":"STARLINK-2528","EPOCH":"2022-01-07T13:46:11.872128","CLASSIFICATION_TYPE":"U","APOAPSIS":"547.954","CENTER_NAME":"EARTH","LAUNCH_DATE":"2021-04-29","PERIOD":"95.593"},{"SITE":"AFETR","OBJECT_ID":"2021-036AJ","EPHEMERIS_TYPE":"0","MEAN_MOTION":"15.06389278","MEAN_ELEMENT_THEORY":"SGP4","FILE":"3266804","GP_ID":"193424837","TLE_LINE1":"1 48308U 21036AJ  22007.57006318 -.00000649  00000-0 -24709-4 0  9993","INCLINATION":"53.0564","MEAN_MOTION_DOT":"-0.00000649","TLE_LINE2":"2 48308  53.0564  84.6845 0001283  86.9701 273.1434 15.06389278 38754","PERIAPSIS":"546.358","OBJECT_TYPE":"PAYLOAD","DECAY_DATE":null,"ARG_OF_PERICENTER":"86.9701","OBJECT_NAME":"STARLINK-2532","COUNTRY_CODE":"US","ECCENTRICITY":"0.00012830","REF_FRAME":"TEME","CENTER_NAME":"EARTH","LAUNCH_DATE":"2021-04-29","PERIOD":"95.593","EPOCH":"2022-01-07T13:40:53.458752","CLASSIFICATION_TYPE":"U","APOAPSIS":"548.135","TIME_SYSTEM":"UTC","MEAN_MOTION_DDOT":"0.0000000000000","BSTAR":"-0.00002470900000","SEMIMAJOR_AXIS":"6925.381","NORAD_CAT_ID":"48308","ELEMENT_SET_NO":"999","REV_AT_EPOCH":"3875","RA_OF_ASC_NODE":"84.6845","MEAN_ANOMALY":"273.1434","RCS_SIZE":"LARGE"}];
